{"type": "FeatureCollection", "features": [ {"type": "Feature", "properties": {"norad_id": 35829, "name": "COSMOS 2251 DEB", "group": "cosmos-2251-debris", "lat": -35.958518010823234, "lon": -64.64189058234588, "alt_km": 644.3533852319924, "timestamp": "2025-12-10T09:57:45.094608+00:00", "meta": {"OBJECT_NAME": "COSMOS 2251 DEB", "OBJECT_ID": "1993-036ATB", "EPOCH": "2025-12-08T14:41:25.732032", "MEAN_MOTION": 14.76103447, "ECCENTRICITY": 0.0006283, "INCLINATION": 74.0249, "RA_OF_ASC_NODE": 106.8945, "ARG_OF_PERICENTER": 174.4564, "MEAN_ANOMALY": 185.6681, "EPHEMERIS_TYPE": 0, "CLASSIFICATION_TYPE": "U", "NORAD_CAT_ID": 35829, "ELEMENT_SET_NO": 999, "REV_AT_EPOCH": 87714, "BSTAR": 0.0032694, "MEAN_MOTION_DOT": 0.0002262, "MEAN_MOTION_DDOT": 0}, "tle": {"line1": "1 35829U 93036ATB 25342.61210338  .00022620  00000+0  32694-2 0  9995", "line2": "2 35829  74.0249 106.8945 0006283 174.4564 185.6681 14.76103447877147"}}, "geometry": {"type": "Point", "coordinates": [-64.64189058234588, -35.958518010823234]}}, {"type": "Feature", "properties": {"norad_id": 35830, "name": "COSMOS 2251 DEB", "group": "cosmos-2251-debris", "lat": -53.644720652856854, "lon": 113.83085365617545, "alt_km": 730.6342178971254, "timestamp": "2025-12-10T09:57:45.094618+00:00", "meta": {"OBJECT_NAME": "COSMOS 2251 DEB", "OBJECT_ID": "1993-036ATC", "EPOCH": "2025-12-06T12:06:38.215008", "MEAN_MOTION": 14.23927917, "ECCENTRICITY": 0.01224789, "INCLINATION": 73.8624, "RA_OF_ASC_NODE": 277.7805, "ARG_OF_PERICENTER": 247.2482, "MEAN_ANOMALY": 111.5683, "EPHEMERIS_TYPE": 0, "CLASSIFICATION_TYPE": "U", "NORAD_CAT_ID": 35830, "ELEMENT_SET_NO": 999, "REV_AT_EPOCH": 61175, "BSTAR": 0.0019622096, "MEAN_MOTION_DOT": 4.837e-05, "MEAN_MOTION_DDOT": 0}, "tle": {"line1": "1 35830U 93036ATC 25340.50460897  .00004837  00000+0  19622-2 0  9996", "line2": "2 35830  73.8624 277.7805 0122478 247.2482 111.5683 14.23927917611750"}}, "geometry": {"type": "Point", "coordinates": [113.83085365617545, -53.644720652856854]}}, {"type": "Feature", "properties": {"norad_id": 35834, "name": "COSMOS 2251 DEB", "group": "cosmos-2251-debris", "lat": 10.94993600193771, "lon": 125.48091347973917, "alt_km": 809.0352851584385, "timestamp": "2025-12-10T09:57:45.094628+00:00", "meta": {"OBJECT_NAME": "COSMOS 2251 DEB", "OBJECT_ID": "1993-036ATG", "EPOCH": "2025-12-10T04:09:38.447424", "MEAN_MOTION": 14.12975254, "ECCENTRICITY": 0.0109194, "INCLINATION": 73.9311, "RA_OF_ASC_NODE": 309.1077, "ARG_OF_PERICENTER": 109.914, "MEAN_ANOMALY": 268.3063, "EPHEMERIS_TYPE": 0, "CLASSIFICATION_TYPE": "U", "NORAD_CAT_ID": 35834, "ELEMENT_SET_NO": 999, "REV_AT_EPOCH": 66227, "BSTAR": 0.00036917, "MEAN_MOTION_DOT": 7.04e-06, "MEAN_MOTION_DDOT": 0}, "tle": {"line1": "1 35834U 93036ATG 25344.17336166  .00000704  00000+0  36917-3 0  9994", "line2": "2 35834  73.9311 309.1077 0109194 109.9140 268.3063 14.12975254662275"}}, "geometry": {"type": "Point", "coordinates": [125.48091347973917, 10.94993600193771]}}, {"type": "Feature", "properties": {"norad_id": 35835, "name": "COSMOS 2251 DEB", "group": "cosmos-2251-debris", "lat": -7.7078420340124305, "lon": -89.87000267294148, "alt_km": 853.9860227429472, "timestamp": "2025-12-10T09:57:45.094638+00:00", "meta": {"OBJECT_NAME": "COSMOS 2251 DEB", "OBJECT_ID": "1993-036ATH", "EPOCH": "2025-12-08T02:26:31.163712", "MEAN_MOTION": 13.82845446, "ECCENTRICITY": 0.0289856, "INCLINATION": 74.0637, "RA_OF_ASC_NODE": 276.2339, "ARG_OF_PERICENTER": 58.9026, "MEAN_ANOMALY": 304.0195, "EPHEMERIS_TYPE": 0, "CLASSIFICATION_TYPE": "U", "NORAD_CAT_ID": 35835, "ELEMENT_SET_NO": 999, "REV_AT_EPOCH": 61635, "BSTAR": 0.0020246404, "MEAN_MOTION_DOT": 3.026e-05, "MEAN_MOTION_DDOT": 0}, "tle": {"line1": "1 35835U 93036ATH 25342.10174958  .00003026  00000+0  20246-2 0  9992", "line2": "2 35835  74.0637 276.2339 0289856  58.9026 304.0195 13.82845446616351"}}, "geometry": {"type": "Point", "coordinates": [-89.87000267294148, -7.7078420340124305]}}, {"type": "Feature", "properties": {"norad_id": 35836, "name": "COSMOS 2251 DEB", "group": "cosmos-2251-debris", "lat": -15.997543484682726, "lon": 2.1597031649208156, "alt_km": 649.4230256717592, "timestamp": "2025-12-10T09:57:45.094649+00:00", "meta": {"OBJECT_NAME": "COSMOS 2251 DEB", "OBJECT_ID": "1993-036ATJ", "EPOCH": "2025-12-08T21:09:26.726112", "MEAN_MOTION": 14.70831317, "ECCENTRICITY": 0.0024584, "INCLINATION": 74.031, "RA_OF_ASC_NODE": 180.4275, "ARG_OF_PERICENTER": 239.4807, "MEAN_ANOMALY": 120.3938, "EPHEMERIS_TYPE": 0, "CLASSIFICATION_TYPE": "U", "NORAD_CAT_ID": 35836, "ELEMENT_SET_NO": 999, "REV_AT_EPOCH": 63463, "BSTAR": 0.0019954, "MEAN_MOTION_DOT": 0.00012243, "MEAN_MOTION_DDOT": 0}, "tle": {"line1": "1 35836U 93036ATJ 25342.88155933  .00012243  00000+0  19954-2 0  9995", "line2": "2 35836  74.0310 180.4275 0024584 239.4807 120.3938 14.70831317634638"}}, "geometry": {"type": "Point", "coordinates": [2.1597031649208156, -15.997543484682726]}}, {"type": "Feature", "properties": {"norad_id": 35837, "name": "COSMOS 2251 DEB", "group": "cosmos-2251-debris", "lat": -55.43509954739216, "lon": -173.5997315524928, "alt_km": 1335.274725942304, "timestamp": "2025-12-10T09:57:45.094659+00:00", "meta": {"OBJECT_NAME": "COSMOS 2251 DEB", "OBJECT_ID": "1993-036ATK", "EPOCH": "2025-12-09T22:01:37.126848", "MEAN_MOTION": 13.63437069, "ECCENTRICITY": 0.0422067, "INCLINATION": 73.7216, "RA_OF_ASC_NODE": 212.3215, "ARG_OF_PERICENTER": 133.5531, "MEAN_ANOMALY": 246.3039, "EPHEMERIS_TYPE": 0, "CLASSIFICATION_TYPE": "U", "NORAD_CAT_ID": 35837, "ELEMENT_SET_NO": 999, "REV_AT_EPOCH": 57938, "BSTAR": 0.0025075, "MEAN_MOTION_DOT": 3.597e-05, "MEAN_MOTION_DDOT": 0}, "tle": {"line1": "1 35837U 93036ATK 25343.91779082  .00003597  00000+0  25075-2 0  9991", "line2": "2 35837  73.7216 212.3215 0422067 133.5531 246.3039 13.63437069579383"}}, "geometry": {"type": "Point", "coordinates": [-173.5997315524928, -55.43509954739216]}}, {"type": "Feature", "properties": {"norad_id": 35839, "name": "COSMOS 2251 DEB", "group": "cosmos-2251-debris", "lat": -7.608042944490683, "lon": 150.73893015522643, "alt_km": 421.12698067589736, "timestamp": "2025-12-10T09:57:45.094669+00:00", "meta": {"OBJECT_NAME": "COSMOS 2251 DEB", "OBJECT_ID": "1993-036ATM", "EPOCH": "2025-12-08T23:03:59.947200", "MEAN_MOTION": 15.49150039, "ECCENTRICITY": 0.0001318, "INCLINATION": 74.2066, "RA_OF_ASC_NODE": 331.7255, "ARG_OF_PERICENTER": 23.9836, "MEAN_ANOMALY": 336.1438, "EPHEMERIS_TYPE": 0, "CLASSIFICATION_TYPE": "U", "NORAD_CAT_ID": 35839, "ELEMENT_SET_NO": 999, "REV_AT_EPOCH": 88509, "BSTAR": 0.0058901, "MEAN_MOTION_DOT": 0.00334695, "MEAN_MOTION_DDOT": 0}, "tle": {"line1": "1 35839U 93036ATM 25342.96111050  .00334695  00000+0  58901-2 0  9992", "line2": "2 35839  74.2066 331.7255 0001318  23.9836 336.1438 15.49150039885090"}}, "geometry": {"type": "Point", "coordinates": [150.73893015522643, -7.608042944490683]}}, {"type": "Feature", "properties": {"norad_id": 35840, "name": "COSMOS 2251 DEB", "group": "cosmos-2251-debris", "lat": -21.92246349157581, "lon": -10.850496575719802, "alt_km": 831.2960914860105, "timestamp": "2025-12-10T09:57:45.094679+00:00", "meta": {"OBJECT_NAME": "COSMOS 2251 DEB", "OBJECT_ID": "1993-036ATN", "EPOCH": "2025-12-09T04:38:38.499360", "MEAN_MOTION": 14.37769402, "ECCENTRICITY": 0.0116323, "INCLINATION": 73.9303, "RA_OF_ASC_NODE": 164.7511, "ARG_OF_PERICENTER": 68.104, "MEAN_ANOMALY": 293.2433, "EPHEMERIS_TYPE": 0, "CLASSIFICATION_TYPE": "U", "NORAD_CAT_ID": 35840, "ELEMENT_SET_NO": 999, "REV_AT_EPOCH": 85240, "BSTAR": 0.002118, "MEAN_MOTION_DOT": 6.875e-05, "MEAN_MOTION_DDOT": 0}, "tle": {"line1": "1 35840U 93036ATN 25343.19350115  .00006875  00000+0  21180-2 0  9992", "line2": "2 35840  73.9303 164.7511 0116323  68.1040 293.2433 14.37769402852405"}}, "geometry": {"type": "Point", "coordinates": [-10.850496575719802, -21.92246349157581]}}, {"type": "Feature", "properties": {"norad_id": 35883, "name": "COSMOS 2251 DEB", "group": "cosmos-2251-debris", "lat": 73.53876101769117, "lon": 178.5887781589894, "alt_km": 736.4818816766683, "timestamp": "2025-12-10T09:57:45.094689+00:00", "meta": {"OBJECT_NAME": "COSMOS 2251 DEB", "OBJECT_ID": "1993-036ATW", "EPOCH": "2025-12-08T12:53:27.979296", "MEAN_MOTION": 14.5058807, "ECCENTRICITY": 0.00839123, "INCLINATION": 74.0248, "RA_OF_ASC_NODE": 77.932, "ARG_OF_PERICENTER": 208.211, "MEAN_ANOMALY": 163.6192, "EPHEMERIS_TYPE": 0, "CLASSIFICATION_TYPE": "U", "NORAD_CAT_ID": 35883, "ELEMENT_SET_NO": 999, "REV_AT_EPOCH": 62325, "BSTAR": 0.00065719246, "MEAN_MOTION_DOT": 2.667e-05, "MEAN_MOTION_DDOT": 0}, "tle": {"line1": "1 35883U 93036ATW 25342.53712939  .00002667  00000+0  65719-3 0  9994", "line2": "2 35883  74.0248  77.9320 0083912 208.2110 163.6192 14.50588070623253"}}, "geometry": {"type": "Point", "coordinates": [178.5887781589894, 73.53876101769117]}}, {"type": "Feature", "properties": {"norad_id": 35884, "name": "COSMOS 2251 DEB", "group": "cosmos-2251-debris", "lat": 21.947240040339384, "lon": -13.139596755373459, "alt_km": 824.9699922113787, "timestamp": "2025-12-10T09:57:45.094699+00:00", "meta": {"OBJECT_NAME": "COSMOS 2251 DEB", "OBJECT_ID": "1993-036ATX", "EPOCH": "2025-12-09T17:00:47.208672", "MEAN_MOTION": 14.25629404, "ECCENTRICITY": 0.0108703, "INCLINATION": 73.9912, "RA_OF_ASC_NODE": 341.4952, "ARG_OF_PERICENTER": 129.2859, "MEAN_ANOMALY": 231.7992, "EPHEMERIS_TYPE": 0, "CLASSIFICATION_TYPE": "U", "NORAD_CAT_ID": 35884, "ELEMENT_SET_NO": 999, "REV_AT_EPOCH": 22314, "BSTAR": 0.0017253, "MEAN_MOTION_DOT": 4.326e-05, "MEAN_MOTION_DDOT": 0}, "tle": {"line1": "1 35884U 93036ATX 25343.70887973  .00004326  00000+0  17253-2 0  9999", "line2": "2 35884  73.9912 341.4952 0108703 129.2859 231.7992 14.25629404223146"}}, "geometry": {"type": "Point", "coordinates": [-13.139596755373459, 21.947240040339384]}}]}